ONEWEB-0504             
1 54122U 22138K   24225.11697580  .00000102  00000+0  22349-3 0  9997
2 54122  87.9102  79.0768 0001731  70.6656 289.4664 13.19724719 88797
ONEWEB-0505             
1 54123U 22138L   24225.11381201  .00000122  00000+0  27235-3 0  9999
2 54123  87.9100  79.0716 0001386  57.7669 302.3598 13.19724369 88775
ONEWEB-0506             
1 54124U 22138M   24224.86109448  .00000105  00000+0  23108-3 0  9998
2 54124  87.9102  79.1191 0001580  76.8332 283.2977 13.19724789 87864
ONEWEB-0507             
1 54125U 22138N   24225.56397934  .00000031  00000+0  44697-4 0  9991
2 54125  87.9108  79.0047 0001431  79.5470 280.5823 13.19724779 88879
ONEWEB-0508             
1 54126U 22138P   24225.33337125  .00000003  00000+0 -25910-4 0  9990
2 54126  87.9105  79.0425 0001246  77.6064 282.5208 13.19724470 88821
ONEWEB-0509             
1 54127U 22138Q   24225.53554750  .00000047  00000+0  85256-4 0  9994
2 54127  87.9099  78.9851 0001649  78.3321 281.7997 13.19725374 88826
ONEWEB-0510             
1 54128U 22138R   24225.42634055 -.00000168  00000+0 -44581-3 0  9991
2 54128  87.9187  48.4594 0001896 103.2880 256.8464 13.20769351 91240
ONEWEB-0511             
1 54129U 22138S   24225.15330258  .00000060  00000+0  11841-3 0  9992
2 54129  87.9100  79.0648 0001950  73.4606 286.6741 13.19725946 88808
