<?xml version="1.0" encoding="UTF-8"?>
<ndm xmlns:xsi="http://www.w3.org/2001/XMLSchema-instance" xsi:noNamespaceSchemaLocation="https://sanaregistry.org/r/ndmxml_unqualified/ndmxml-2.0.0-master-2.0.xsd">
<omm id="CCSDS_OMM_VERS" version="2.0">
<header><CREATION_DATE/><ORIGINATOR/></header><body><segment><metadata><OBJECT_NAME>ONEWEB-0504</OBJECT_NAME><OBJECT_ID>2022-138K</OBJECT_ID><CENTER_NAME>EARTH</CENTER_NAME><REF_FRAME>TEME</REF_FRAME><TIME_SYSTEM>UTC</TIME_SYSTEM><MEAN_ELEMENT_THEORY>SGP4</MEAN_ELEMENT_THEORY></metadata><data><meanElements><EPOCH>2024-08-12T02:48:26.709120</EPOCH><MEAN_MOTION>13.19724719</MEAN_MOTION><ECCENTRICITY>.0001731</ECCENTRICITY><INCLINATION>87.9102</INCLINATION><RA_OF_ASC_NODE>79.0768</RA_OF_ASC_NODE><ARG_OF_PERICENTER>70.6656</ARG_OF_PERICENTER><MEAN_ANOMALY>289.4664</MEAN_ANOMALY></meanElements><tleParameters><EPHEMERIS_TYPE>0</EPHEMERIS_TYPE><CLASSIFICATION_TYPE>U</CLASSIFICATION_TYPE><NORAD_CAT_ID>54122</NORAD_CAT_ID><ELEMENT_SET_NO>999</ELEMENT_SET_NO><REV_AT_EPOCH>8879</REV_AT_EPOCH><BSTAR>.22349E-3</BSTAR><MEAN_MOTION_DOT>.102E-5</MEAN_MOTION_DOT><MEAN_MOTION_DDOT>0</MEAN_MOTION_DDOT></tleParameters></data></segment></body></omm>
<omm id="CCSDS_OMM_VERS" version="2.0">
<header><CREATION_DATE/><ORIGINATOR/></header><body><segment><metadata><OBJECT_NAME>ONEWEB-0505</OBJECT_NAME><OBJECT_ID>2022-138L</OBJECT_ID><CENTER_NAME>EARTH</CENTER_NAME><REF_FRAME>TEME</REF_FRAME><TIME_SYSTEM>UTC</TIME_SYSTEM><MEAN_ELEMENT_THEORY>SGP4</MEAN_ELEMENT_THEORY></metadata><data><meanElements><EPOCH>2024-08-12T02:43:53.357664</EPOCH><MEAN_MOTION>13.19724369</MEAN_MOTION><ECCENTRICITY>.0001386</ECCENTRICITY><INCLINATION>87.9100</INCLINATION><RA_OF_ASC_NODE>79.0716</RA_OF_ASC_NODE><ARG_OF_PERICENTER>57.7669</ARG_OF_PERICENTER><MEAN_ANOMALY>302.3598</MEAN_ANOMALY></meanElements><tleParameters><EPHEMERIS_TYPE>0</EPHEMERIS_TYPE><CLASSIFICATION_TYPE>U</CLASSIFICATION_TYPE><NORAD_CAT_ID>54123</NORAD_CAT_ID><ELEMENT_SET_NO>999</ELEMENT_SET_NO><REV_AT_EPOCH>8877</REV_AT_EPOCH><BSTAR>.27235E-3</BSTAR><MEAN_MOTION_DOT>.122E-5</MEAN_MOTION_DOT><MEAN_MOTION_DDOT>0</MEAN_MOTION_DDOT></tleParameters></data></segment></body></omm>
<omm id="CCSDS_OMM_VERS" version="2.0">
<header><CREATION_DATE/><ORIGINATOR/></header><body><segment><metadata><OBJECT_NAME>ONEWEB-0506</OBJECT_NAME><OBJECT_ID>2022-138M</OBJECT_ID><CENTER_NAME>EARTH</CENTER_NAME><REF_FRAME>TEME</REF_FRAME><TIME_SYSTEM>UTC</TIME_SYSTEM><MEAN_ELEMENT_THEORY>SGP4</MEAN_ELEMENT_THEORY></metadata><data><meanElements><EPOCH>2024-08-11T20:39:58.563072</EPOCH><MEAN_MOTION>13.19724789</MEAN_MOTION><ECCENTRICITY>.000158</ECCENTRICITY><INCLINATION>87.9102</INCLINATION><RA_OF_ASC_NODE>79.1191</RA_OF_ASC_NODE><ARG_OF_PERICENTER>76.8332</ARG_OF_PERICENTER><MEAN_ANOMALY>283.2977</MEAN_ANOMALY></meanElements><tleParameters><EPHEMERIS_TYPE>0</EPHEMERIS_TYPE><CLASSIFICATION_TYPE>U</CLASSIFICATION_TYPE><NORAD_CAT_ID>54124</NORAD_CAT_ID><ELEMENT_SET_NO>999</ELEMENT_SET_NO><REV_AT_EPOCH>8786</REV_AT_EPOCH><BSTAR>.23108E-3</BSTAR><MEAN_MOTION_DOT>.105E-5</MEAN_MOTION_DOT><MEAN_MOTION_DDOT>0</MEAN_MOTION_DDOT></tleParameters></data></segment></body></omm>
<omm id="CCSDS_OMM_VERS" version="2.0">
<header><CREATION_DATE/><ORIGINATOR/></header><body><segment><metadata><OBJECT_NAME>ONEWEB-0507</OBJECT_NAME><OBJECT_ID>2022-138N</OBJECT_ID><CENTER_NAME>EARTH</CENTER_NAME><REF_FRAME>TEME</REF_FRAME><TIME_SYSTEM>UTC</TIME_SYSTEM><MEAN_ELEMENT_THEORY>SGP4</MEAN_ELEMENT_THEORY></metadata><data><meanElements><EPOCH>2024-08-12T13:32:07.814976</EPOCH><MEAN_MOTION>13.19724779</MEAN_MOTION><ECCENTRICITY>.0001431</ECCENTRICITY><INCLINATION>87.9108</INCLINATION><RA_OF_ASC_NODE>79.0047</RA_OF_ASC_NODE><ARG_OF_PERICENTER>79.5470</ARG_OF_PERICENTER><MEAN_ANOMALY>280.5823</MEAN_ANOMALY></meanElements><tleParameters><EPHEMERIS_TYPE>0</EPHEMERIS_TYPE><CLASSIFICATION_TYPE>U</CLASSIFICATION_TYPE><NORAD_CAT_ID>54125</NORAD_CAT_ID><ELEMENT_SET_NO>999</ELEMENT_SET_NO><REV_AT_EPOCH>8887</REV_AT_EPOCH><BSTAR>.44697E-4</BSTAR><MEAN_MOTION_DOT>.31E-6</MEAN_MOTION_DOT><MEAN_MOTION_DDOT>0</MEAN_MOTION_DDOT></tleParameters></data></segment></body></omm>
<omm id="CCSDS_OMM_VERS" version="2.0">
<header><CREATION_DATE/><ORIGINATOR/></header><body><segment><metadata><OBJECT_NAME>ONEWEB-0508</OBJECT_NAME><OBJECT_ID>2022-138P</OBJECT_ID><CENTER_NAME>EARTH</CENTER_NAME><REF_FRAME>TEME</REF_FRAME><TIME_SYSTEM>UTC</TIME_SYSTEM><MEAN_ELEMENT_THEORY>SGP4</MEAN_ELEMENT_THEORY></metadata><data><meanElements><EPOCH>2024-08-12T08:00:03.276000</EPOCH><MEAN_MOTION>13.19724470</MEAN_MOTION><ECCENTRICITY>.0001246</ECCENTRICITY><INCLINATION>87.9105</INCLINATION><RA_OF_ASC_NODE>79.0425</RA_OF_ASC_NODE><ARG_OF_PERICENTER>77.6064</ARG_OF_PERICENTER><MEAN_ANOMALY>282.5208</MEAN_ANOMALY></meanElements><tleParameters><EPHEMERIS_TYPE>0</EPHEMERIS_TYPE><CLASSIFICATION_TYPE>U</CLASSIFICATION_TYPE><NORAD_CAT_ID>54126</NORAD_CAT_ID><ELEMENT_SET_NO>999</ELEMENT_SET_NO><REV_AT_EPOCH>8882</REV_AT_EPOCH><BSTAR>-.2591E-4</BSTAR><MEAN_MOTION_DOT>.3E-7</MEAN_MOTION_DOT><MEAN_MOTION_DDOT>0</MEAN_MOTION_DDOT></tleParameters></data></segment></body></omm>
<omm id="CCSDS_OMM_VERS" version="2.0">
<header><CREATION_DATE/><ORIGINATOR/></header><body><segment><metadata><OBJECT_NAME>ONEWEB-0509</OBJECT_NAME><OBJECT_ID>2022-138Q</OBJECT_ID><CENTER_NAME>EARTH</CENTER_NAME><REF_FRAME>TEME</REF_FRAME><TIME_SYSTEM>UTC</TIME_SYSTEM><MEAN_ELEMENT_THEORY>SGP4</MEAN_ELEMENT_THEORY></metadata><data><meanElements><EPOCH>2024-08-12T12:51:11.304000</EPOCH><MEAN_MOTION>13.19725374</MEAN_MOTION><ECCENTRICITY>.0001649</ECCENTRICITY><INCLINATION>87.9099</INCLINATION><RA_OF_ASC_NODE>78.9851</RA_OF_ASC_NODE><ARG_OF_PERICENTER>78.3321</ARG_OF_PERICENTER><MEAN_ANOMALY>281.7997</MEAN_ANOMALY></meanElements><tleParameters><EPHEMERIS_TYPE>0</EPHEMERIS_TYPE><CLASSIFICATION_TYPE>U</CLASSIFICATION_TYPE><NORAD_CAT_ID>54127</NORAD_CAT_ID><ELEMENT_SET_NO>999</ELEMENT_SET_NO><REV_AT_EPOCH>8882</REV_AT_EPOCH><BSTAR>.85256E-4</BSTAR><MEAN_MOTION_DOT>.47E-6</MEAN_MOTION_DOT><MEAN_MOTION_DDOT>0</MEAN_MOTION_DDOT></tleParameters></data></segment></body></omm>
<omm id="CCSDS_OMM_VERS" version="2.0">
<header><CREATION_DATE/><ORIGINATOR/></header><body><segment><metadata><OBJECT_NAME>ONEWEB-0510</OBJECT_NAME><OBJECT_ID>2022-138R</OBJECT_ID><CENTER_NAME>EARTH</CENTER_NAME><REF_FRAME>TEME</REF_FRAME><TIME_SYSTEM>UTC</TIME_SYSTEM><MEAN_ELEMENT_THEORY>SGP4</MEAN_ELEMENT_THEORY></metadata><data><meanElements><EPOCH>2024-08-12T10:13:55.823520</EPOCH><MEAN_MOTION>13.20769351</MEAN_MOTION><ECCENTRICITY>.0001896</ECCENTRICITY><INCLINATION>87.9187</INCLINATION><RA_OF_ASC_NODE>48.4594</RA_OF_ASC_NODE><ARG_OF_PERICENTER>103.2880</ARG_OF_PERICENTER><MEAN_ANOMALY>256.8464</MEAN_ANOMALY></meanElements><tleParameters><EPHEMERIS_TYPE>0</EPHEMERIS_TYPE><CLASSIFICATION_TYPE>U</CLASSIFICATION_TYPE><NORAD_CAT_ID>54128</NORAD_CAT_ID><ELEMENT_SET_NO>999</ELEMENT_SET_NO><REV_AT_EPOCH>9124</REV_AT_EPOCH><BSTAR>-.44581E-3</BSTAR><MEAN_MOTION_DOT>-.168E-5</MEAN_MOTION_DOT><MEAN_MOTION_DDOT>0</MEAN_MOTION_DDOT></tleParameters></data></segment></body></omm>
<omm id="CCSDS_OMM_VERS" version="2.0">
<header><CREATION_DATE/><ORIGINATOR/></header><body><segment><metadata><OBJECT_NAME>ONEWEB-0511</OBJECT_NAME><OBJECT_ID>2022-138S</OBJECT_ID><CENTER_NAME>EARTH</CENTER_NAME><REF_FRAME>TEME</REF_FRAME><TIME_SYSTEM>UTC</TIME_SYSTEM><MEAN_ELEMENT_THEORY>SGP4</MEAN_ELEMENT_THEORY></metadata><data><meanElements><EPOCH>2024-08-12T03:40:45.342912</EPOCH><MEAN_MOTION>13.19725946</MEAN_MOTION><ECCENTRICITY>.000195</ECCENTRICITY><INCLINATION>87.9100</INCLINATION><RA_OF_ASC_NODE>79.0648</RA_OF_ASC_NODE><ARG_OF_PERICENTER>73.4606</ARG_OF_PERICENTER><MEAN_ANOMALY>286.6741</MEAN_ANOMALY></meanElements><tleParameters><EPHEMERIS_TYPE>0</EPHEMERIS_TYPE><CLASSIFICATION_TYPE>U</CLASSIFICATION_TYPE><NORAD_CAT_ID>54129</NORAD_CAT_ID><ELEMENT_SET_NO>999</ELEMENT_SET_NO><REV_AT_EPOCH>8880</REV_AT_EPOCH><BSTAR>.11841E-3</BSTAR><MEAN_MOTION_DOT>.6E-6</MEAN_MOTION_DOT><MEAN_MOTION_DDOT>0</MEAN_MOTION_DDOT></tleParameters></data></segment></body></omm>

</ndm>
